{"type":"Topology","objects":{"australia":{"geometries":[{"properties":{"name":"Australia"},"type":"MultiPolygon","arcs":[[[0]],[[1]],[[2]],[[3]],[[4]],[[5]],[[6]],[[7]],[[8]],[[9]],[[10]],[[11]],[[12]],[[13]],[[14]],[[15]],[[16]],[[17]],[[18]],[[19]],[[20]],[[21]],[[22]],[[23]],[[24]],[[25]],[[26]],[[27]],[[28]],[[29]],[[30]],[[31]],[[32]],[[33]],[[34]],[[35]],[[36]],[[37]],[[38]],[[39]],[[40]],[[41]],[[42]],[[43]],[[44]],[[45]],[[46]],[[47]],[[48]],[[49]],[[50]],[[51]],[[52]],[[53]],[[54]],[[55]],[[56]],[[57]],[[58]],[[59]],[[60]],[[61]],[[62]],[[63]],[[64]],[[65]],[[66]],[[67]],[[68]],[[69]],[[70]],[[71]],[[72]],[[73]],[[74]],[[75]],[[76]],[[77]],[[78]],[[79]],[[80]],[[81]],[[82]],[[83]],[[84]],[[85]],[[86]],[[87]],[[88]],[[89]],[[90]],[[91]],[[92]]],"id":"feature_0"}],"type":"GeometryCollection"}},"bbox":[112.91944420700008,-43.641289971999925,159.1064559250001,-9.240166924999926],"transform":{"scale":[0.00046187473592735934,0.00034401467061670617],"translate":[112.91944420700008,-43.641289971999925]},"arcs":[[[40306,34986],[-867,380],[-307,-231],[-441,-156],[-1370,99],[-2071,-240],[-582,-150],[-599,-400],[-1381,-693],[-543,-113],[-1034,-437],[-1323,-126],[-661,98],[-404,147],[-232,-140],[-154,21],[-1018,-800],[-1163,-549],[-360,-379],[-1033,-247],[-337,-248],[-230,-342],[-308,-1196],[-132,-61],[-292,-366],[-60,-264],[-352,-231],[-87,-158],[-310,139],[-252,-278],[-243,-67],[-89,305],[-196,128],[-394,-125],[-139,78],[-367,-52],[-102,-187],[-83,81],[-372,46],[-178,-128],[-22,-182],[-87,83],[-65,-79],[-201,4],[-45,14],[69,146],[-68,211],[-148,206],[-459,-222],[-209,116],[-149,-56],[-207,165],[-431,13],[-363,-153],[-148,74],[-1160,-147],[-75,-127],[-288,-108],[-251,102],[-386,-40],[-212,77],[-425,-171],[-507,-457],[-222,-498],[32,-132],[163,-73],[-173,-60],[-154,100],[-69,-121],[54,-137],[-81,-105],[-135,143],[-155,-251],[-245,174],[-600,57],[104,-139],[-347,-167],[65,-132],[-71,-94],[-611,-303],[-119,-250],[24,-218],[-515,-130],[84,-207],[-202,87],[-586,-129],[115,-147],[27,117],[110,-139],[107,4],[-114,-85],[-573,206],[-124,-98],[-16,-168],[-604,349],[-322,30],[-111,-160],[-413,143],[-156,-121],[-306,138],[-213,-124],[-374,144],[-152,149],[-26,71],[261,-41],[-251,237],[24,-135],[-49,-39],[-606,229],[-255,9],[-136,388],[-657,745],[-696,418],[-232,0],[-140,-178],[-235,343],[-1,238],[-84,234],[-21,649],[59,228],[-69,287],[102,190],[-33,279],[446,-359],[374,39],[324,345],[236,594],[164,32],[18,77],[-26,225],[-68,-275],[17,764],[-159,1056],[216,432],[-132,-278],[0,-140],[161,-359],[-120,442],[195,-26],[44,102],[-118,189],[67,344],[-82,143],[61,106],[-135,174],[135,26],[45,229],[-76,1200],[-89,361],[-489,1003],[-307,909],[-286,476],[-260,886],[-112,588],[30,166],[-104,142],[30,199],[-100,333],[54,374],[-46,710],[71,518],[-296,1079],[-516,785],[-57,156],[27,375],[-128,388],[-478,850],[-312,359],[-148,709],[100,509],[-284,1082],[-914,1860],[-602,755],[-147,511],[-190,256],[220,-98],[38,-143],[65,692],[48,-808],[121,-314],[-67,313],[52,190],[-31,572],[73,-476],[119,50],[112,-630],[-36,-301],[84,363],[-25,236],[64,-39],[48,-808],[61,35],[68,329],[42,-120],[-34,-340],[72,-8],[16,-151],[55,112],[254,43],[4,105],[122,120],[31,522],[-223,294],[-211,57],[-77,239],[-155,146],[-42,431],[-84,63],[-15,192],[-198,364],[4,213],[201,423],[12,-266],[138,-91],[196,-432],[114,-43],[-12,-207],[75,-54],[-114,-764],[52,-142],[145,-28],[115,247],[66,228],[-53,288],[120,-94],[-8,-415],[91,-59],[-27,-152],[75,-407],[111,-172],[178,-165],[224,210],[59,171],[-92,351],[77,382],[-89,249],[178,-31],[-74,181],[52,248],[-223,152],[-57,216],[-173,199],[-262,573],[-272,808],[-239,194],[-100,326],[45,172],[-122,119],[-13,478],[-357,569],[-104,346],[-13,478],[103,230],[-40,351],[88,171],[10,233],[313,830],[288,284],[68,202],[30,379],[-74,479],[136,323],[-9,351],[-103,412],[-218,177],[-27,437],[184,285],[35,227],[122,205],[310,1100],[192,333],[295,102],[-205,-1083],[102,-290],[-32,-162],[82,106],[52,-67],[-117,-236],[-14,-230],[149,-128],[91,157],[140,71],[110,-146],[64,45],[218,889],[65,25],[53,275],[-57,188],[118,-109],[209,577],[611,435],[381,83],[809,477],[319,521],[417,280],[256,484],[465,259],[97,358],[201,-47],[351,141],[537,451],[198,362],[118,-13],[-133,-343],[155,-159],[448,263],[98,-40],[100,113],[59,-224],[374,-158],[345,63],[194,142],[289,-3],[223,121],[172,179],[47,181],[456,398],[173,-46],[198,105],[100,-77],[515,153],[163,-41],[268,124],[332,514],[34,156],[262,243],[142,-118],[4,120],[63,21],[587,-119],[130,-155],[144,-37],[276,181],[37,119],[1091,163],[282,115],[1268,678],[377,329],[397,484],[450,827],[266,754],[-63,284],[221,26],[116,134],[13,150],[-94,73],[172,344],[215,-6],[242,232],[87,188],[617,578],[47,167],[-54,235],[-207,64],[-124,-110],[-46,60],[82,194],[-5,583],[-135,428],[63,879],[233,355],[-50,52],[42,93],[296,339],[83,64],[-1,-90],[60,31],[-12,147],[264,-147],[-149,317],[122,239],[131,-60],[251,121],[135,-61],[-162,223],[27,286],[276,268],[65,280],[225,97],[-47,-117],[120,-139],[-138,-8],[-66,-311],[46,-131],[87,32],[47,-227],[128,-57],[65,75],[-81,-241],[122,-112],[-16,-308],[253,-294],[276,-874],[246,-332],[150,-481],[-7,678],[166,515],[-140,264],[33,317],[133,-31],[52,-188],[115,-17],[276,-419],[114,-15],[-129,152],[-128,474],[148,-74],[-46,230],[241,343],[-47,82],[-62,-171],[-239,-92],[-182,433],[-244,222],[-186,33],[215,313],[-164,41],[22,-101],[-67,1],[-191,219],[148,-26],[-58,106],[384,-181],[-119,60],[142,61],[-320,222],[445,-63],[-173,189],[173,-48],[0,138],[-200,118],[-38,-78],[-134,159],[79,66],[-48,93],[35,98],[333,118],[179,-159],[-86,-39],[133,-78],[-32,-43],[-175,-38],[281,-198],[7,-119],[-66,0],[60,-179],[57,0],[5,264],[219,-113],[-90,245],[75,42],[-163,179],[467,-159],[208,-359],[259,-36],[95,165],[190,-122],[639,23],[153,-117],[140,67],[-667,221],[-259,-62],[-162,54],[-50,332],[102,179],[19,278],[68,-8],[118,-337],[57,141],[107,38],[-27,367],[70,33],[-14,229],[72,96],[90,-45],[105,216],[-267,0],[-267,-557],[15,139],[-118,361],[-74,-141],[-61,577],[61,120],[29,-100],[21,139],[-66,40],[-45,240],[155,1],[54,164],[340,-106],[22,259],[30,-164],[62,-5],[2,238],[107,101],[-59,71],[-78,-56],[61,157],[-74,18],[0,121],[202,-101],[-37,-139],[126,119],[81,-76],[-29,-104],[213,-20],[158,-179],[-29,-160],[82,41],[69,-101],[26,141],[268,-198],[-245,287],[37,209],[119,99],[-230,92],[-261,-170],[-70,125],[85,197],[178,23],[105,171],[-90,40],[-22,-97],[-51,57],[-238,-256],[0,246],[-77,3],[16,69],[119,115],[165,-97],[104,101],[-45,377],[90,-60],[66,66],[-23,-185],[31,-81],[49,90],[54,-29],[90,-359],[-42,391],[42,48],[16,-96],[160,-63],[91,-217],[311,8],[-126,88],[36,90],[-52,73],[136,124],[-321,45],[14,108],[-218,31],[63,108],[160,-34],[41,102],[-231,117],[-29,190],[-114,127],[163,102],[-14,95],[120,-10],[89,107],[-148,60],[71,112],[106,7],[71,216],[-10,-316],[103,199],[106,-290],[58,331],[59,-59],[0,159],[133,-20],[-33,-163],[107,24],[61,418],[-63,147],[-6,306],[71,64],[191,-197],[58,59],[-48,-182],[-115,2],[57,-505],[-101,-372],[206,686],[1,-208],[140,103],[16,-72],[97,6],[-71,-78],[34,-291],[184,-155],[-31,198],[46,148],[127,-77],[37,99],[88,7],[-132,372],[174,89],[5,333],[177,117],[-22,292],[-277,48],[-73,166],[16,90],[116,-111],[29,129],[106,-119],[-22,162],[-149,137],[93,-28],[57,123],[11,-104],[130,9],[-46,-99],[46,-40],[-89,-139],[238,179],[-118,-159],[104,-83],[-97,-28],[-7,-105],[100,11],[-46,-227],[109,-74],[-32,-81],[120,13],[15,-63],[122,132],[-112,140],[108,185],[-31,40],[104,48],[119,211],[82,-64],[125,183],[90,-38],[-92,-62],[-159,-332],[161,14],[-74,-118],[61,-99],[103,20],[0,-159],[74,-101],[16,159],[89,91],[0,227],[88,-159],[89,139],[30,180],[-59,-61],[-28,141],[265,2],[-43,97],[103,0],[-107,75],[-131,383],[145,68],[62,-146],[74,60],[-67,84],[37,75],[109,-60],[40,19],[-59,41],[104,57],[145,-157],[2,-140],[107,-6],[-33,-173],[65,10],[97,-243],[92,152],[-16,101],[69,-200],[86,167],[208,-201],[-5,174],[148,-180],[43,61],[68,-335],[117,-24],[351,-328],[267,-548],[74,-40],[7,-162],[96,41],[-29,-179],[64,29],[146,-171],[-16,-117],[125,36],[133,-212],[357,-246],[-8,-75],[-93,21],[12,-270],[-157,-70],[32,-120],[-139,-615],[16,-497],[-72,-42],[64,-327],[-104,-267],[167,209],[-1,566],[53,139],[215,-227],[140,-412],[5,323],[-154,247],[-53,433],[254,441],[80,-384],[32,154],[115,-161],[69,-9],[21,119],[-116,341],[71,100],[-109,136],[311,146],[1234,-443],[177,-222],[33,-394],[-101,-309],[149,157],[-16,-197],[106,377],[-74,788],[74,-149],[133,75],[105,-125],[225,-83],[207,-349],[56,-184],[-28,-153],[130,101],[69,-187],[108,16],[-162,339],[-88,391],[81,319],[296,-83],[324,227],[102,-66],[24,235],[-24,45],[-59,-134],[-417,-186],[74,161],[-184,-60],[-227,330],[-41,169],[281,51],[155,186],[-264,-127],[-286,88],[-384,397],[32,231],[261,537],[-24,269],[223,-119],[44,278],[58,-111],[223,127],[30,174],[-72,187],[216,307],[-70,13],[4,238],[114,480],[116,211],[50,-214],[118,-55],[311,236],[46,-34],[260,398],[169,-65],[-372,508],[-81,20],[15,652],[111,114],[95,-119],[203,105],[72,185],[5,495],[99,-27],[104,159],[147,-80],[-20,168],[173,-328],[230,25],[-204,76],[-83,134],[124,71],[-85,65],[31,375],[60,45],[-91,105],[136,52],[309,-151],[13,-436],[46,139],[192,-298],[20,122],[129,-84],[-205,329],[205,-69],[-186,250],[-125,10],[0,136],[178,201],[312,-121],[-119,529],[65,129],[112,-59],[60,61],[328,-261],[-46,101],[130,458],[110,-511],[218,-204],[729,56],[244,159],[80,-140],[268,-124],[343,286],[76,151],[59,-209],[146,78],[74,-42],[90,-255],[-74,-223],[134,232],[-57,200],[36,223],[269,184],[249,-131],[170,10],[-266,192],[38,636],[-128,186],[222,381],[-253,123],[-180,392],[-272,120],[-297,-66],[-273,-190],[-138,113],[-5,191],[-108,-19],[-93,89],[61,125],[-104,0],[-5,89],[-118,44],[-224,-15],[81,59],[-33,79],[106,-41],[-43,220],[107,-55],[31,142],[125,-231],[93,73],[5,282],[200,-184],[17,-106],[62,59],[-16,-359],[45,-34],[28,117],[73,-299],[63,-11],[-33,171],[83,-36],[19,71],[-102,104],[5,252],[-92,231],[87,14],[210,-395],[-17,309],[91,1],[51,116],[87,-269],[-12,-200],[57,0],[89,206],[64,-63],[92,-303],[208,-198],[132,-296],[136,0],[208,316],[134,-56],[8,137],[-68,97],[94,19],[358,-518],[-4,-148],[200,-417],[205,-73],[66,120],[119,0],[38,-27],[-100,-108],[12,-72],[105,-5],[76,108],[-4,-124],[158,-70],[116,121],[0,-339],[57,158],[210,-29],[59,149],[149,0],[111,160],[179,-71],[66,50],[50,-104],[-200,-142],[-6,-141],[215,-169],[245,200],[67,-242],[110,141],[124,-198],[-59,-85],[39,-290],[214,315],[312,-260],[358,-20],[239,302],[138,38],[70,-265],[77,3],[54,-258],[229,-57],[223,-331],[167,47],[152,-166],[27,76],[-129,135],[363,-51],[25,57],[-274,101],[196,110],[-23,74],[137,118],[204,-76],[164,150],[112,-106],[269,233],[-284,-114],[-33,93],[58,176],[396,133],[216,214],[-14,230],[69,22],[79,-52],[-73,-212],[-199,-297],[-204,-148],[431,101],[-190,-109],[-346,-411],[-36,-163],[173,-315],[321,465],[70,-89],[305,342],[-255,-433],[84,-149],[186,95],[6,-95],[-169,-286],[106,-299],[80,112],[222,-99],[240,133],[170,561],[-277,34],[-125,117],[592,664],[134,5],[129,129],[13,-59],[-212,-121],[-21,-82],[42,-59],[94,39],[58,-250],[58,-12],[8,-264],[158,-260],[59,-56],[118,50],[16,116],[-112,102],[-46,-40],[13,59],[163,57],[250,-171],[109,-190],[2,-175],[121,10],[-162,-126],[-298,-443],[74,247],[-141,-56],[46,-287],[-130,-121],[-24,-283],[-177,-5],[5,-335],[-112,247],[-69,-27],[11,-145],[-131,89],[39,-223],[121,-62],[-1,-119],[199,-122],[44,-119],[-12,-51],[-108,90],[-44,-92],[-57,146],[-127,-33],[3,-96],[150,-145],[-78,-282],[-109,-33],[-19,-221],[-62,76],[-219,-306],[-44,39],[33,173],[110,66],[-36,467],[-84,53],[-62,-128],[9,-208],[-128,96],[-8,-196],[-188,-191],[-24,408],[-94,-106],[-40,-208],[-70,1],[0,-238],[-98,280],[-111,-211],[-30,93],[-129,-202],[85,-260],[101,-31],[-107,-111],[-85,98],[-56,-75],[32,-243],[-53,-176],[86,-194],[68,38],[15,-62],[-79,-112],[32,-73],[148,-10],[146,255],[88,-24],[-158,-393],[-29,-300],[-148,-170],[-30,-685],[-86,10],[-239,-214],[-198,-470],[-126,-74],[-167,-373],[-21,-205],[-192,-201],[-142,-6],[219,-655],[177,-207],[219,-67],[141,-210],[311,-178],[196,-258],[591,-419],[105,-438],[163,-158],[147,-23],[243,-283],[143,24],[278,-440],[-16,-215],[154,103],[300,-99],[10,115],[134,90],[117,-169],[442,-286],[241,-295],[833,-378],[261,-537],[688,-756],[667,-283],[357,43],[396,-265],[364,-72],[116,-239],[208,-161],[-36,-243],[49,-253],[238,-420],[356,-80],[438,-455],[616,-259],[161,-246],[521,11],[613,209],[697,550],[224,879],[-4,350],[224,380],[72,254],[251,282],[75,378],[127,226],[-7,270],[137,544],[169,447],[-115,384],[60,110],[74,706],[306,1250],[125,226],[-6,138],[50,-1],[14,240],[-133,389],[-179,1144],[172,813],[-5,261],[-246,483],[-37,241],[128,855],[226,655],[90,0],[45,277],[-150,340],[-88,430],[103,268],[65,-16],[202,234],[119,439],[16,-100],[41,65],[100,-112],[26,-364],[96,-189],[-72,440],[223,122],[-180,15],[-221,162],[327,201],[-94,56],[-288,-41],[-225,223],[110,141],[-185,20],[0,-231],[88,-50],[-216,-51],[-20,62],[274,895],[200,-10],[-44,101],[-78,-19],[169,587],[177,150],[14,-441],[96,199],[126,-99],[23,89],[-173,190],[-11,231],[398,1622],[60,544],[-18,583],[373,142],[168,236],[72,269],[242,117],[151,-188],[-217,-288],[-30,-280],[193,241],[149,-199],[15,-203],[75,96],[88,-14],[148,-570],[-19,-310],[153,-304],[-110,-277],[79,-370],[10,-674],[281,-283],[243,93],[154,-175],[159,-17],[-97,-42],[-255,-484],[-20,-522],[214,-31],[167,-144],[91,-424],[301,-227],[-118,-349],[-45,-429],[45,81],[73,-45],[282,103],[-104,-258],[16,-447],[51,-740],[140,-248],[15,-317],[-147,-657],[176,-572],[164,-196],[44,-567],[163,-560],[343,-317],[477,401],[86,357],[221,-181],[296,181],[100,257],[213,-299],[-9,-289],[114,71],[-37,-372],[133,-256],[171,9],[87,-138],[225,-40],[94,-347],[187,-211],[417,-78],[-6,-140],[123,-192],[149,13],[-213,-443],[-25,-206],[71,-243],[90,-15],[31,111],[54,-99],[-138,-145],[26,-95],[-117,-277],[266,-933],[-23,-448],[230,-457],[-60,-407],[74,-175],[-117,-214],[-31,-316],[137,-111],[222,-509],[339,-418],[119,-247],[-81,-107],[74,-193],[52,15],[-23,155],[111,141],[89,-71],[162,95],[-158,-542],[320,-863],[89,-103],[-6,-360],[172,-340],[-89,-149],[-49,-324],[64,-200],[-233,-807],[9,-275],[197,-329],[179,-89],[55,-387],[282,-40],[-148,-943],[135,-312],[494,-524],[285,-156],[115,58],[344,-383],[228,151],[30,219],[88,-201],[-14,-202],[163,-276],[623,-5],[63,99],[-104,217],[339,-679],[87,-434],[-74,-53],[258,-357],[218,-22],[-74,419],[158,-67],[109,-407],[119,-125],[186,-40],[124,99],[126,-172],[321,-86],[60,-198],[-90,-40],[0,-103],[297,-264],[0,-71],[134,38],[-90,59],[117,96],[-84,120],[14,84],[168,-62],[83,89],[110,-468],[81,141],[15,-97],[61,38],[-45,-120],[58,-37],[-13,-101],[162,61],[-3,68],[55,-32],[146,-314],[3,-210],[157,-151],[-55,-13],[84,-167],[-149,20],[-129,275],[-109,-115],[-124,98],[50,-179],[-138,-208],[147,-215],[-40,-95],[65,-116],[110,-146],[115,-24],[22,-159],[-58,-170],[104,139],[299,-191],[94,29],[37,-76],[-102,16],[0,-166],[269,-58],[174,-272],[-75,-379],[82,-179],[44,80],[82,-80],[61,-278],[-74,-59],[118,-78],[-105,-106],[-1,-145],[120,91],[103,-71],[74,-232],[125,139],[26,-98],[-124,-197],[79,-260],[-93,-183],[301,-1072],[-45,-81],[119,-168],[-45,-110],[238,-181],[4,-298],[-78,-136],[221,141],[102,195],[507,-777],[-267,1009],[119,362],[163,94],[217,-363],[87,-327],[452,-276],[447,-398],[-61,298],[-78,78],[-3,332],[52,128],[110,-33],[54,-65],[-45,-103],[89,-79],[30,178],[59,-238],[119,-89],[-117,-169],[-64,65],[3,-164],[83,0],[34,-190],[90,285],[24,-357],[91,-131],[-85,-664],[-110,-19],[81,-99],[-20,-558],[161,-261],[-112,-176],[59,-296],[147,-226],[-148,-59],[92,-31],[63,-150],[111,84],[161,-70],[249,-316],[132,-374],[196,-58],[353,-528],[87,48],[122,-95],[29,-202],[38,-20],[29,158],[238,-158],[-33,150],[-131,147],[55,51],[198,-110],[-25,-123],[129,105],[66,-348],[127,-91],[60,82],[230,-771],[258,-527],[751,-621],[78,-564],[284,-468],[-150,-53],[280,-213],[256,-93],[29,121],[30,-83],[154,-49],[39,-375],[-133,-171],[200,111],[-52,-111],[60,-63],[-133,-184],[7,-317],[-52,-13],[297,-439],[0,-418],[87,190],[0,250],[130,-338],[182,-3],[-138,-368],[-147,-742],[33,-144],[104,-78],[-59,-738],[89,-110],[-11,-602],[139,-539],[-277,-96],[-95,-242],[171,-10],[-113,-330],[223,-154],[51,-250],[166,-136],[102,-461],[204,-369],[-17,-79],[95,51],[-29,-418],[-30,77],[-40,-132],[29,-64],[55,79],[23,-361],[262,-350],[44,-363],[-61,-541],[29,-247],[118,-209],[-53,-599],[-282,-385],[-86,-247],[21,-194],[-206,-376],[29,-550],[-86,-307],[-63,-729],[-201,-575],[-27,-437],[-361,-1165],[-76,-462],[86,-410],[133,-87],[-107,-362],[43,-137],[-171,-258],[-45,-216],[37,-232],[-128,-219],[36,-254],[-193,-252],[7,-217],[-129,-174],[26,-85],[-123,-174],[7,-144],[-299,-300],[-136,-284],[-79,-344],[129,-167],[-94,-181],[61,-115],[-73,-259],[42,-93],[-531,-341],[-222,-271],[59,-129],[-179,97],[-164,-99],[280,-80],[-11,-120],[-434,-93],[-402,-276],[-140,-352],[-138,-135],[-97,-379],[-123,-153],[0,-140],[-116,-101],[55,144],[-54,48],[-135,-126],[-5,-149],[95,47],[19,-60],[-127,-221],[-46,-266],[-306,-100],[-80,119],[-33,-40],[48,-138],[-59,-78],[160,112],[-9,-227],[65,165],[34,-74],[-69,-220],[-10,-385],[-125,-90],[103,-40],[-28,-239],[-69,-149],[-103,130],[-82,-121],[-149,-40],[294,-76],[-145,-41],[-61,-82],[89,-19],[-17,-60],[-433,-444],[-96,-197],[-13,-453],[-99,-172],[-69,101],[-87,-109],[251,-160],[-101,-68],[-79,-453],[-231,-266],[111,-80],[-71,-48],[90,-80],[-24,-120],[163,-81],[-14,-182],[-82,-96],[-63,93],[20,185],[-198,-33],[-39,-144],[94,-173],[99,32],[-16,-159],[-118,-60],[-147,59],[-180,-100],[-140,-268],[6,-196],[-178,-272],[-7,-238],[-249,-506],[-218,-12],[103,-309],[-192,-189],[-2,-478],[-91,41],[-55,-102],[134,-90],[-48,-172],[46,-425],[-156,-251],[-10,-466],[-338,-985],[-13,-67],[87,-72],[-51,-143],[46,-174],[-141,-97],[262,-159],[122,-344],[-148,28],[-74,-73],[74,-615],[-193,-153],[-255,-22],[34,131],[-164,-14],[104,-199],[-190,-310],[-406,-269],[-325,-10],[-149,-107],[-41,99],[-255,40],[-756,-65],[-135,-74],[-904,1],[-844,-277],[-344,-193],[-784,-684],[-1186,-1351],[-38,88],[-460,-71],[-446,-176],[-133,130],[-273,-56],[-91,-121],[177,-187],[48,-260],[270,159],[80,188],[63,-59],[13,-330],[-104,-278],[67,-11],[38,-119],[-193,-234],[-148,114],[45,120],[-125,106],[-232,464],[-195,141],[-161,-34],[-30,-188],[-178,-30],[-143,428],[-212,290],[208,-119],[-95,146],[-166,34],[-289,-121],[-186,296],[-304,121],[132,101],[-29,218],[185,9],[110,113],[-200,438],[-452,-21],[-116,-241],[58,-258],[-251,20],[-148,-240],[-217,-62],[-580,515],[113,5],[163,-139],[387,110],[296,529],[-20,313],[-180,161],[-96,282],[-104,91],[-60,-91],[-177,2],[-45,-123],[-287,-222],[-246,-88],[-89,-186],[-312,-20],[19,-114],[307,-59],[281,155],[111,-62],[22,-199],[-96,-69],[-38,-138],[-544,-45],[-756,-537],[-450,-597],[-303,-107],[-82,-180],[-281,-199],[-389,291],[-290,6],[-354,350],[-541,167],[-638,500],[-28,93],[-76,-93],[-151,114],[-481,-92],[-495,337],[-400,61],[-282,-136],[-30,-86],[78,-179],[-114,22],[-94,-138],[-162,185],[-192,-74],[-51,44],[44,234],[-556,518],[-396,214],[-566,-41],[-632,431],[-341,738],[-283,278],[53,40],[-44,114],[-273,88],[-418,635],[-116,256],[102,158],[-129,356],[-123,147],[368,312],[32,613],[-277,764],[-350,863],[-239,341],[-559,614],[-608,494],[180,-25],[967,-994],[254,-355],[232,-518],[-170,597],[-256,366],[-940,850],[0,87],[74,-8],[23,121],[150,93],[171,-129],[-20,-197],[68,-61],[-58,-154],[235,6],[38,273],[-296,250],[142,78],[165,-26],[5,327],[-104,-61],[-103,194],[-194,46],[14,-83],[-178,-132],[-305,-71],[-10,-145],[161,-156],[-325,134],[-189,-37],[432,-185],[-268,-41],[-268,67],[-231,-82],[-233,-230],[-543,5],[-171,-79],[-204,148],[69,233],[256,145],[214,308],[177,122],[74,335],[-12,340],[102,210],[-43,717],[15,60],[102,-89],[6,57],[-555,806],[-147,535],[-153,175],[7,141],[-175,243],[-149,-337],[61,-186],[-231,-310],[-84,-323],[-19,-186],[59,-99],[-354,-1264],[5,-210],[-169,-145],[-239,145],[-293,37],[-203,-156],[-201,0],[-151,-204],[-280,43],[-274,-201],[-160,117],[35,150],[228,315],[-43,193],[170,373],[260,-71],[275,61],[270,-142],[118,106],[145,871],[-74,441],[-42,54],[-97,-72],[150,340],[12,342],[-80,238],[117,16],[91,183],[-36,209],[208,277],[-56,126],[599,811],[54,29],[5,-116],[54,33],[14,257],[-275,779],[97,202],[210,136],[184,12],[7,168],[-65,168],[-114,56],[-120,631],[78,102],[-193,159],[0,139],[-98,161],[39,77],[-104,141],[-43,-505],[92,-96],[28,-350],[-123,-206],[56,-189],[-317,62],[-90,-214],[-299,-305],[-179,-795],[-314,-697],[-151,-153],[-292,-71],[-161,139],[-135,-210],[176,4],[-773,-435],[-56,-134],[-460,-362],[-297,-684],[-254,-218],[-29,-439],[-69,154],[-287,-153],[-45,-161],[59,-138],[-114,18],[-48,-109],[31,-290],[-97,5],[-84,-112],[147,-41],[173,151],[82,-39],[14,119],[54,-12],[-9,-216],[-93,-169],[93,-300],[-103,-81],[-394,436],[-171,-97],[-29,-167],[-125,-13],[-62,211],[-317,432],[-299,133],[45,139],[-113,133],[-125,79],[-265,-90],[221,478],[8,-176],[246,-103],[-45,-104],[139,-188],[76,-48],[212,95],[-144,35],[3,158],[-107,-69],[14,282],[-107,572],[-97,278],[-153,125],[92,61],[-18,286],[-163,362],[-755,761],[43,441],[-101,368],[-298,347],[117,23],[-53,153],[-270,78],[-15,-89],[121,-25],[69,-117],[-73,-61],[-85,129],[-242,130],[-215,-59],[-41,69],[-56,-148],[-118,123],[-98,335],[-184,58],[133,79],[-42,156],[-264,50],[139,272],[-127,354],[309,-34],[-47,-127],[41,-107],[181,371],[-95,361],[-229,283],[-206,-6],[-408,-255],[10,332],[175,126],[-268,418],[-107,-55],[-35,139],[-145,74],[-68,138],[44,61],[-72,61],[-137,-4],[-53,-201],[-183,175],[-126,-62],[163,-193],[-408,26],[-75,-82],[-170,100],[-97,-35],[-246,289],[-125,-34],[-22,104],[-411,355],[-563,28],[-137,-124],[41,-135],[-161,51],[-355,-58],[-337,363],[-1174,879]],[[32935,83147],[137,-260],[-17,-184],[-131,161],[11,283]],[[33417,83636],[188,-493],[-179,240],[-9,253]],[[36185,83701],[-45,-59],[-62,184],[73,-61],[34,-64]],[[35971,83842],[116,-247],[9,-233],[-193,480],[68,0]],[[29405,86530],[115,-5],[123,-75],[-207,-11],[-31,91]],[[47491,91867],[156,-88],[-40,-145],[-116,233]],[[47608,91911],[168,-55],[-81,-38],[-87,93]],[[48070,92181],[-139,-68],[-25,34],[17,64],[147,-30]],[[44361,93162],[164,-28],[-191,-62],[27,-88],[-105,-20],[-1,125],[106,73]],[[44509,93561],[74,-140],[-148,0],[-104,-119],[0,160],[178,99]],[[75949,1194],[-203,146],[-47,142],[-57,-72],[24,-136],[-163,-119],[-200,236],[-10,83],[114,83],[-262,183],[-6,100],[126,69],[22,141],[82,-31],[-30,-170],[100,-94],[269,9],[48,46],[-109,32],[-55,128],[59,20],[-58,35],[14,124],[-327,20],[-203,214],[-134,-44],[-67,-132],[122,-277],[-103,-139],[-163,-61],[-74,139],[145,-38],[18,298],[-119,-52],[-300,431],[-52,-34],[217,-393],[-58,-341],[-133,91],[-38,-46],[102,-162],[-116,-134],[21,-364],[-106,-94],[-97,48],[-11,85],[-144,26],[56,102],[-25,122],[-99,-136],[-79,65],[-14,194],[-97,-54],[-14,-197],[288,-292],[-296,-119],[200,-46],[-125,-194],[-164,-20],[208,-141],[-161,5],[13,-161],[-103,0],[-17,-76],[104,-67],[-33,-89],[-174,-86],[-94,90],[-200,-54],[-239,222],[-99,242],[8,-162],[-97,-26],[-377,85],[-103,-79],[-116,138],[-106,-160],[-85,98],[-94,-37],[0,-81],[-178,-18],[-1,293],[-175,253],[131,-50],[-60,99],[238,-18],[164,-180],[40,149],[109,-90],[-2,221],[-132,122],[-124,-170],[-94,158],[-92,-125],[-234,375],[-3,-148],[-101,-77],[123,-46],[-204,-10],[-220,559],[-121,2],[30,145],[-196,226],[-189,39],[-312,584],[44,125],[-73,185],[-189,135],[70,132],[-137,275],[-99,781],[113,-200],[420,-334],[80,-388],[22,283],[82,-33],[83,248],[-82,-54],[-37,119],[-87,-23],[-210,261],[-44,262],[-139,-87],[-25,-135],[-89,81],[81,210],[-130,456],[-316,340],[-218,394],[-86,33],[-116,460],[-252,379],[67,142],[-215,413],[-14,414],[-150,245],[70,65],[-45,129],[187,170],[-11,613],[49,58],[97,-250],[473,-53],[291,-223],[59,40],[-28,46],[253,0],[0,220],[41,-11],[84,-102],[-82,-123],[135,-118],[239,-87],[176,64],[104,-185],[340,-86],[175,-256],[228,-41],[647,-332],[454,-31],[265,97],[85,-138],[150,254],[194,79],[112,-76],[26,-189],[306,-12],[-241,131],[-41,118],[40,103],[390,184],[332,-87],[249,189],[123,-2],[221,-193],[306,443],[139,80],[431,-175],[144,105],[147,338],[210,-91],[136,-195],[142,-17],[264,-470],[-128,-124],[74,-60],[-74,-398],[107,-192],[-138,-227],[208,161],[-161,-462],[76,-454],[-62,-241],[44,-178],[-98,-145],[142,-335],[-59,-392],[139,-174],[-103,-174],[104,-99],[-92,-214],[-138,98],[105,170],[-74,88],[104,105],[-342,175],[172,150],[-132,175],[28,-156],[-101,5],[17,-135],[-51,-47],[185,-91],[-268,-20],[-40,-283],[-240,-414],[89,80],[57,-58],[-56,-100],[2,-428],[-115,-113],[-82,103],[-57,-81],[104,-133],[35,-375],[-138,-118],[-1,-171],[-96,-136],[153,-65],[-73,49],[85,97],[182,-205],[11,-177],[-78,-52],[-53,-248],[61,-99],[-30,-101],[86,-48],[-56,-130],[45,-80]],[[74447,1103],[130,-392],[-132,-326],[-143,71],[-48,201],[-103,-251],[-177,209],[50,43],[151,-114],[-24,250],[48,45],[77,-95],[6,154],[165,205]],[[74567,1646],[168,-476],[-166,-56],[-30,87],[88,93],[-208,125],[135,40],[-60,55],[73,132]],[[76125,3087],[209,-200],[-223,-54],[80,-145],[-213,-101],[72,240],[-70,50],[26,111],[119,99]],[[76528,3909],[162,-167],[-238,159],[76,8]],[[69307,8796],[291,-273],[-416,-20],[-7,149],[132,144]],[[76214,8952],[22,139],[260,71],[-123,-311],[-159,101]],[[68979,9406],[25,-281],[-104,-263],[-74,300],[118,58],[35,186]],[[69242,9220],[-150,121],[142,140],[138,-53],[-23,-161],[-107,-47]],[[76653,9700],[349,-359],[-164,-179],[-148,-41],[-29,196],[-209,-76],[-74,60],[-248,-37],[-181,106],[32,116],[132,78],[260,-42],[280,178]],[[76080,9997],[-254,457],[-122,41],[52,159],[-61,236],[-118,-56],[-149,101],[229,182],[3,215],[65,-39],[126,130],[463,-651],[286,-76],[-34,-348],[-129,-131],[163,80],[71,-271],[-86,71],[-13,-64],[88,-95],[-42,-44],[-202,97],[-61,-135],[-133,-58],[-161,86],[19,113]],[[67521,10896],[85,-97],[-70,-304],[-454,-277],[-66,218],[29,242],[-105,143],[53,634],[187,136],[-8,218],[105,11],[252,-264],[36,-412],[-44,-248]],[[72643,14226],[410,-25],[-264,-120],[-146,145]],[[70062,15086],[177,-282],[-18,-65],[-193,150],[-326,-33],[162,185],[198,45]],[[70414,15478],[114,-141],[-174,-41],[-132,-143],[-150,75],[-30,128],[60,180],[312,-58]],[[54582,22746],[-8,-138],[-169,-159],[-489,158],[-418,-134],[-57,-336],[-310,-165],[-191,209],[-310,90],[-191,-182],[-260,60],[-215,-81],[-126,61],[-317,-99],[-128,258],[-268,180],[141,449],[1032,250],[564,257],[238,-81],[385,84],[23,-63],[-112,-121],[143,-41],[-145,-196],[228,-89],[200,52],[74,-209],[127,54],[139,193],[280,-100],[34,-140],[106,-21]],[[50940,24627],[63,71],[48,-79],[-111,8]],[[50246,25269],[161,-369],[-85,28],[-41,189],[-123,153],[88,-1]],[[52936,26653],[10,-75],[-41,-116],[-41,66],[72,125]],[[46824,28862],[9,-62],[-155,-145],[16,209],[130,-2]],[[44701,32906],[-47,77],[77,102],[208,59],[-238,-238]],[[99865,35237],[53,-5],[81,-136],[-36,-62],[-54,3],[39,86],[-83,114]],[[87718,47231],[248,-64],[-201,-888],[-114,-16],[-11,677],[78,291]],[[87707,47344],[-129,374],[-19,464],[196,142],[32,-125],[-104,-473],[24,-382]],[[643,51083],[-20,-209],[-349,581],[-199,485],[-75,725],[87,120],[104,-40],[94,-642],[187,-491],[-47,-225],[63,-16],[0,66],[155,-354]],[[86678,53378],[114,-143],[-27,-31],[-87,174]],[[325,53384],[21,622],[83,154],[-104,-776]],[[503,54400],[-74,-199],[74,697],[-36,-397],[36,-101]],[[87579,54219],[-620,-1967],[35,-267],[-96,-115],[-121,200],[-28,317],[-87,106],[264,738],[1,234],[-118,108],[458,534],[30,333],[-99,210],[-123,69],[312,359],[8,-532],[37,-153],[147,-174]],[[83169,57821],[108,-377],[-118,223],[10,154]],[[82944,58235],[148,-409],[-181,-87],[-507,845],[103,125],[95,-8],[268,-252],[95,131],[-21,-345]],[[79693,61918],[84,-70],[-90,-219],[-32,159],[38,130]],[[81375,62278],[111,-260],[-159,-113],[21,83],[-74,18],[78,161],[-34,112],[57,-1]],[[80102,62786],[25,-343],[-86,-194],[-41,245],[102,292]],[[80918,63661],[103,0],[60,41],[-56,-130],[-107,89]],[[80944,63897],[-128,-56],[0,161],[128,-105]],[[5510,66599],[-122,-359],[-219,-49],[8,200],[256,386],[48,2],[29,-180]],[[78321,67506],[46,-179],[-134,-140],[-30,79],[67,32],[51,208]],[[78264,67806],[-61,81],[-44,-121],[-83,14],[-21,125],[-95,-18],[80,106],[45,288],[179,-475]],[[78026,68304],[-74,-102],[4,79],[-50,-39],[-44,80],[59,200],[118,79],[-13,-297]],[[76928,68821],[66,-113],[-23,-125],[-43,18],[0,220]],[[73426,71331],[74,-179],[-102,-32],[-86,125],[114,86]],[[72313,73422],[74,-112],[-92,-166],[-189,38],[-52,263],[-218,282],[-3,96],[260,-95],[26,232],[41,-101],[116,-13],[-51,-204],[132,-159],[-44,-61]],[[57684,77328],[15,-177],[-138,-63],[-93,61],[-81,-122],[-46,123],[195,336],[148,-158]],[[56660,77944],[95,42],[54,-42],[-109,-102],[-40,102]],[[58056,79061],[0,-181],[-32,61],[-25,-122],[-111,19],[-99,-97],[-126,203],[-142,-100],[82,-114],[-111,-1],[-63,-312],[-101,66],[-56,-136],[-151,-104],[-164,10],[-105,171],[9,-205],[-81,-68],[42,407],[268,423],[638,218],[253,-138],[-16,-60],[91,60]],[[51423,81328],[90,-117],[-105,-218],[-103,187],[118,148]],[[51705,81390],[74,-118],[-119,28],[24,-143],[-128,-65],[0,278],[149,20]],[[52305,81072],[62,-67],[-73,-211],[-157,174],[-40,218],[-102,-27],[64,235],[53,-59],[13,198],[192,-173],[-12,-288]],[[51277,81755],[-33,-345],[-193,21],[57,272],[169,52]],[[51911,81548],[-103,-138],[-14,238],[90,160],[27,-260]],[[24895,82517],[74,-31],[-44,-127],[-207,25],[177,133]],[[25180,82391],[218,-284],[-257,-131],[-30,79],[141,114],[-268,38],[45,125],[58,-24],[-5,136],[140,102],[-42,-155]],[[25992,83441],[5,-270],[-136,165],[50,57],[37,-51],[44,99]],[[49466,83639],[-8,-95],[-164,-6],[88,199],[84,-98]],[[26578,84796],[-38,-209],[59,-148],[-111,-52],[-35,-107],[-99,85],[10,202],[89,-29],[-47,181],[80,154],[92,-77]],[[51729,86719],[-3,1],[17,20],[-14,-21]],[[50593,87018],[-81,-106],[66,-144],[-95,-161],[-84,-17],[30,79],[-74,180],[-51,-20],[6,-200],[-86,67],[-4,270],[108,-54],[66,211],[199,-105]],[[52032,85635],[0,-280],[-105,-61],[-368,124],[-203,-70],[-461,247],[-222,-100],[245,318],[-60,877],[222,-45],[39,140],[67,-98],[28,63],[45,-41],[0,81],[73,23],[-118,153],[-4,109],[94,4],[12,-96],[211,204],[12,-115],[-103,-164],[106,-59],[-45,-81],[59,-139],[178,-29],[60,289],[133,-21],[46,-139],[-148,-320],[-72,29],[-118,-114],[-12,-152],[104,-95],[-122,-62],[-5,-82],[-103,18],[0,-157],[69,-181],[103,9],[11,106],[198,-171],[78,177],[135,0],[-59,-99]],[[50266,87806],[-89,216],[234,-293],[-105,-34],[-25,-254],[-15,365]],[[51740,91755],[27,-163],[-18,-16],[-52,86],[43,93]],[[42047,91690],[156,43],[-13,-143],[-143,100]],[[50600,92047],[56,-34],[-101,-150],[-184,-113],[-120,59],[0,119],[71,-52],[83,101],[17,-89],[73,20],[105,139]],[[50977,92285],[29,232],[45,46],[-33,-265],[-41,-13]],[[51096,92585],[226,157],[-91,-179],[-135,22]],[[49876,92828],[54,133],[161,33],[-106,-171],[-109,5]],[[42413,92995],[296,-1],[-11,-120],[-123,-84],[-85,33],[-77,172]],[[50663,93131],[343,412],[-6,-130],[-215,-251],[-430,-279],[194,335],[114,-87]],[[38143,92834],[180,-128],[18,-161],[-285,-101],[-380,201],[-513,-168],[-146,148],[115,62],[4,245],[160,-82],[86,67],[29,494],[-112,51],[266,438],[163,62],[117,-337],[-27,-252],[163,-211],[-30,-317],[192,-11]],[[40267,93777],[27,-274],[-128,-54],[6,-310],[-189,65],[-202,-425],[-719,-610],[-1006,826],[-280,1295],[71,148],[251,-417],[92,78],[62,-49],[-45,-314],[200,184],[-10,-134],[90,-165],[61,144],[263,71],[164,148],[178,-110],[43,-192],[56,286],[225,191],[144,-437],[-30,445],[149,165],[61,-76],[-2,-179],[64,101],[209,-20],[102,-410],[93,29]],[[51622,94827],[-99,-543],[-79,-49],[-314,-640],[-124,-14],[381,760],[74,26],[101,330],[-35,39],[95,91]],[[42371,94418],[60,60],[-12,153],[-94,165],[180,-7],[104,186],[-44,-128],[74,-280],[-68,-130],[113,-59],[-47,-34],[32,-176],[-60,-287],[-238,537]],[[63380,96071],[195,-358],[-167,-54],[-41,-106],[-162,248],[24,118],[151,152]],[[63497,96047],[102,77],[67,-114],[-110,-82],[-59,119]],[[63597,97386],[89,-178],[-97,-174],[-148,52],[-61,141],[46,118],[171,41]],[[63374,97555],[0,-183],[-103,-121],[-99,195],[98,198],[104,-89]],[[5934,33404],[40,-194],[4,-66],[-44,20],[0,240]],[[5458,33776],[182,82],[60,-37],[-242,-45]],[[1646,44152],[88,70],[63,2],[-140,-171],[-11,99]],[[72881,72552],[223,-203],[-247,-25],[24,228]],[[64342,99610],[314,-36],[-148,-123],[-244,85],[78,74]],[[63410,99999],[158,-62],[-2,-74],[-277,45],[121,91]]]}