{"type":"FeatureCollection","features":[{"type":"Feature","properties":{"source":"ABS 2021 SA2"},"geometry":{"type":"MultiLineString","coordinates":[[[140.98,-38.1],[140.98,-38.06],[140.98,-38.02],[140.98,-37.98],[140.98,-37.94],[140.98,-37.9],[140.98,-37.86],[140.98,-37.82],[140.98,-37.78],[140.98,-37.74],[140.98,-37.7],[140.98,-37.66],[140.98,-37.62],[140.98,-37.58],[140.98,-37.54],[140.98,-37.5],[140.98,-37.46],[140.98,-37.42],[140.98,-37.38],[140.98,-37.34],[140.98,-37.3],[140.98,-37.26],[140.98,-37.22],[140.98,-37.18],[140.98,-37.14],[140.98,-37.1],[140.98,-37.06],[140.98,-37.02],[140.98,-36.98],[140.98,-36.94],[140.98,-36.9],[140.98,-36.86],[140.98,-36.82],[140.98,-36.78],[140.98,-36.74],[140.98,-36.7],[140.98,-36.66],[140.98,-36.62],[140.98,-36.58],[140.98,-36.54],[140.98,-36.5],[140.98,-36.46],[140.98,-36.42],[140.98,-36.38],[140.98,-36.34],[140.98,-36.3],[140.98,-36.26],[140.98,-36.22],[140.98,-36.18],[140.98,-36.14],[140.98,-36.1],[140.98,-36.06],[140.98,-36.02],[140.98,-35.98],[140.98,-35.94],[140.98,-35.9],[140.98,-35.86],[140.98,-35.82],[140.98,-35.78],[140.98,-35.74],[140.98,-35.7],[140.98,-35.66],[140.98,-35.62],[140.98,-35.58],[140.98,-35.54],[140.98,-35.5],[140.98,-35.46],[140.98,-35.42],[140.98,-35.38],[140.98,-35.34],[140.98,-35.3],[140.98,-35.26],[140.98,-35.22],[140.98,-35.18],[140.98,-35.14],[140.98,-35.1],[140.98,-35.06],[140.98,-35.02],[140.98,-34.98],[140.98,-34.94],[140.98,-34.9],[140.98,-34.86],[140.98,-34.82],[140.98,-34.78],[140.98,-34.74],[140.98,-34.7],[140.98,-34.66],[140.98,-34.62],[140.98,-34.58],[140.98,-34.54],[140.98,-34.5],[140.98,-34.46],[140.98,-34.42],[140.98,-34.38],[140.98,-34.34],[140.98,-34.3],[140.98,-34.26],[140.98,-34.22],[140.98,-34.18],[140.94,-34.18],[140.94,-34.14],[140.94,-34.1],[140.94,-34.06],[140.94,-34.02],[140.98,-34.02],[140.98,-34.06],[141.02,-34.06]],[[149.98,-37.5],[149.94,-37.5],[149.9,-37.5],[149.86,-37.5],[149.86,-37.46],[149.82,-37.46],[149.78,-37.46],[149.78,-37.42],[149.74,-37.42],[149.7,-37.42],[149.66,-37.42],[149.66,-37.38],[149.62,-37.38],[149.58,-37.38],[149.58,-37.34],[149.54,-37.34],[149.5,-37.34],[149.46,-37.34],[149.46,-37.3],[149.42,-37.3],[149.38,-37.3],[149.38,-37.26],[149.34,-37.26],[149.3,-37.26],[149.26,-37.26],[149.26,-37.22],[149.22,-37.22],[149.18,-37.22],[149.18,-37.18],[149.14,-37.18],[149.1,-37.18],[149.06,-37.18],[149.06,-37.14],[149.02,-37.14],[148.98,-37.14],[148.98,-37.1],[148.94,-37.1],[148.9,-37.1],[148.86,-37.1],[148.86,-37.06],[148.82,-37.06],[148.78,-37.06],[148.78,-37.02],[148.74,-37.02],[148.7,-37.02],[148.66,-37.02],[148.66,-36.98],[148.62,-36.98],[148.58,-36.98],[148.58,-36.94],[148.54,-36.94],[148.5,-36.94],[148.46,-36.94],[148.46,-36.9],[148.42,-36.9],[148.38,-36.9],[148.38,-36.86],[148.34,-36.86],[148.3,-36.86],[148.26,-36.86],[148.26,-36.82],[148.22,-36.82],[148.18,-36.82],[148.14,-36.82],[148.1,-36.82],[148.1,-36.78],[148.14,-36.78],[148.14,-36.74],[148.18,-36.74],[148.18,-36.7],[148.18,-36.66],[148.22,-36.66],[148.22,-36.62],[148.22,-36.58],[148.18,-36.58],[148.14,-36.58],[148.14,-36.54],[148.14,-36.5],[148.14,-36.46],[148.1,-36.46],[148.06,-36.46],[148.06,-36.42],[148.02,-36.42],[148.02,-36.38],[148.06,-36.38],[148.06,-36.34],[148.02,-36.34],[148.02,-36.3],[148.02,-36.26],[148.02,-36.22],[148.02,-36.18],[148.02,-36.14],[147.98,-36.14],[147.98,-36.1],[147.98,-36.06],[147.94,-36.06],[147.9,-36.06],[147.9,-36.02],[147.9,-35.98],[147.86,-35.98],[147.82,-35.98],[147.78,-35.98],[147.74,-35.98],[147.7,-35.98],[147.7,-35.94],[147.66,-35.94],[147.66,-35.98],[147.62,-35.98],[147.58,-35.98],[147.54,-35.98],[147.5,-35.98],[147.5,-35.94],[147.46,-35.94],[147.42,-35.94],[147.38,-35.94],[147.38,-35.98],[147.34,-35.98],[147.34,-36.02],[147.3,-36.02],[147.3,-36.06],[147.26,-36.06],[147.22,-36.06],[147.18,-36.06],[147.14,-36.06],[147.14,-36.02],[147.14,-35.98],[147.1,-35.98],[147.1,-36.02],[147.06,-36.02],[147.06,-36.06],[147.06,-36.1],[147.02,-36.1],[146.98,-36.1],[146.94,-36.1],[146.94,-36.06],[146.9,-36.06],[146.9,-36.1],[146.86,-36.1],[146.82,-36.1],[146.78,-36.1],[146.78,-36.06],[146.74,-36.06],[146.74,-36.02],[146.7,-36.02],[146.7,-36.06],[146.66,-36.06],[146.66,-36.02],[146.62,-36.02],[146.62,-35.98],[146.58,-35.98],[146.54,-35.98],[146.5,-35.98],[146.5,-35.94],[146.46,-35.94],[146.46,-35.98],[146.42,-35.98],[146.38,-35.98],[146.38,-36.02],[146.38,-36.06],[146.34,-36.06],[146.34,-36.02],[146.3,-36.02],[146.26,-36.02],[146.26,-36.06],[146.22,-36.06],[146.18,-36.06],[146.14,-36.06],[146.14,-36.02],[146.1,-36.02],[146.06,-36.02],[146.06,-35.98],[146.02,-35.98],[145.98,-35.98],[145.94,-35.98],[145.9,-35.98],[145.9,-35.94],[145.86,-35.94],[145.86,-35.98],[145.82,-35.98],[145.78,-35.98],[145.74,-35.98],[145.74,-35.94],[145.7,-35.94],[145.66,-35.94],[145.62,-35.94],[145.62,-35.9],[145.62,-35.86],[145.58,-35.86],[145.54,-35.86],[145.54,-35.82],[145.5,-35.82],[145.5,-35.86],[145.46,-35.86],[145.42,-35.86],[145.38,-35.86],[145.34,-35.86],[145.3,-35.86],[145.26,-35.86],[145.22,-35.86],[145.18,-35.86],[145.14,-35.86],[145.1,-35.86],[145.1,-35.82],[145.06,-35.82],[145.06,-35.86],[145.02,-35.86],[144.98,-35.86],[144.94,-35.86],[144.94,-35.9],[144.94,-35.94],[144.9,-35.94],[144.9,-35.98],[144.9,-36.02],[144.94,-36.02],[144.94,-36.06],[144.94,-36.1],[144.9,-36.1],[144.9,-36.06],[144.86,-36.06],[144.82,-36.06],[144.82,-36.1],[144.78,-36.1],[144.78,-36.14],[144.74,-36.14],[144.7,-36.14],[144.7,-36.1],[144.66,-36.1],[144.66,-36.06],[144.62,-36.06],[144.62,-36.02],[144.58,-36.02],[144.54,-36.02],[144.5,-36.02],[144.5,-35.98],[144.46,-35.98],[144.46,-35.94],[144.42,-35.94],[144.42,-35.9],[144.38,-35.9],[144.38,-35.86],[144.38,-35.82],[144.34,-35.82],[144.34,-35.78],[144.3,-35.78],[144.3,-35.74],[144.26,-35.74],[144.22,-35.74],[144.22,-35.7],[144.18,-35.7],[144.18,-35.66],[144.14,-35.66],[144.14,-35.62],[144.1,-35.62],[144.1,-35.58],[144.06,-35.58],[144.02,-35.58],[144.02,-35.54],[143.98,-35.54],[143.98,-35.5],[143.94,-35.5],[143.9,-35.5],[143.86,-35.5],[143.82,-35.5],[143.82,-35.46],[143.82,-35.42],[143.78,-35.42],[143.78,-35.38],[143.74,-35.38],[143.7,-35.38],[143.66,-35.38],[143.66,-35.42],[143.62,-35.42],[143.62,-35.38],[143.58,-35.38],[143.58,-35.34],[143.58,-35.3],[143.58,-35.26],[143.58,-35.22],[143.54,-35.22],[143.5,-35.22],[143.46,-35.22],[143.46,-35.18],[143.42,-35.18],[143.38,-35.18],[143.38,-35.14],[143.38,-35.1],[143.34,-35.1],[143.34,-35.06],[143.34,-35.02],[143.3,-35.02],[143.3,-34.98],[143.34,-34.98],[143.34,-34.94],[143.34,-34.9],[143.34,-34.86],[143.34,-34.82],[143.34,-34.78],[143.3,-34.78],[143.26,-34.78],[143.26,-34.74],[143.22,-34.74],[143.18,-34.74],[143.18,-34.7],[143.14,-34.7],[143.1,-34.7],[143.06,-34.7],[143.06,-34.66],[143.02,-34.66],[143.02,-34.7],[142.98,-34.7],[142.98,-34.66],[142.94,-34.66],[142.9,-34.66],[142.9,-34.7],[142.86,-34.7],[142.86,-34.66],[142.86,-34.62],[142.82,-34.62],[142.78,-34.62],[142.78,-34.58],[142.74,-34.58],[142.74,-34.62],[142.7,-34.62],[142.66,-34.62],[142.66,-34.66],[142.66,-34.7],[142.66,-34.74],[142.62,-34.74],[142.58,-34.74],[142.58,-34.78],[142.54,-34.78],[142.5,-34.78],[142.5,-34.74],[142.5,-34.7],[142.5,-34.66],[142.5,-34.62],[142.46,-34.62],[142.46,-34.58],[142.42,-34.58],[142.38,-34.58],[142.38,-34.54],[142.38,-34.5],[142.38,-34.46],[142.38,-34.42],[142.34,-34.42],[142.34,-34.38],[142.38,-34.38],[142.38,-34.34],[142.34,-34.34],[142.3,-34.34],[142.3,-34.3],[142.26,-34.3],[142.26,-34.26],[142.22,-34.26],[142.22,-34.22],[142.22,-34.18],[142.18,-34.18],[142.14,-34.18],[142.14,-34.14],[142.1,-34.14],[142.1,-34.18],[142.06,-34.18],[142.06,-34.14],[142.02,-34.14],[142.02,-34.1],[141.98,-34.1],[141.94,-34.1],[141.94,-34.14],[141.9,-34.14],[141.9,-34.1],[141.86,-34.1],[141.86,-34.14],[141.82,-34.14],[141.78,-34.14],[141.74,-34.14],[141.74,-34.1],[141.7,-34.1],[141.66,-34.1],[141.62,-34.1],[141.62,-34.14],[141.58,-34.14],[141.54,-34.14],[141.54,-34.18],[141.5,-34.18],[141.5,-34.14],[141.46,-34.14],[141.46,-34.18],[141.42,-34.18],[141.38,-34.18],[141.38,-34.14],[141.34,-34.14],[141.34,-34.1],[141.3,-34.1],[141.26,-34.1],[141.26,-34.06],[141.22,-34.06],[141.22,-34.1],[141.18,-34.1],[141.14,-34.1],[141.14,-34.06],[141.1,-34.06],[141.06,-34.06],[141.02,-34.06]],[[142.78,-34.58],[142.82,-34.58],[142.82,-34.54],[142.78,-34.54],[142.78,-34.58]],[[149.02,-35.98],[149.06,-35.98],[149.06,-35.94],[149.06,-35.9],[149.1,-35.9],[149.1,-35.86],[149.1,-35.82],[149.1,-35.78],[149.1,-35.74],[149.1,-35.7],[149.1,-35.66],[149.06,-35.66],[149.06,-35.62],[149.1,-35.62],[149.14,-35.62],[149.14,-35.58],[149.14,-35.54],[149.14,-35.5],[149.14,-35.46],[149.14,-35.42],[149.18,-35.42],[149.18,-35.38],[149.22,-35.38],[149.26,-35.38],[149.3,-35.38],[149.34,-35.38],[149.38,-35.38],[149.38,-35.34],[149.38,-35.3],[149.34,-35.3],[149.3,-35.3],[149.26,-35.3],[149.26,-35.26],[149.22,-35.26],[149.22,-35.22],[149.18,-35.22],[149.18,-35.18],[149.18,-35.14],[149.14,-35.14],[149.1,-35.14],[149.06,-35.14],[149.02,-35.14],[149.02,-35.18],[148.98,-35.18],[148.98,-35.22],[148.94,-35.22],[148.94,-35.26],[148.9,-35.26],[148.86,-35.26],[148.86,-35.3],[148.82,-35.3],[148.78,-35.3],[148.78,-35.34],[148.78,-35.38],[148.78,-35.42],[148.74,-35.42],[148.74,-35.46],[148.74,-35.5],[148.74,-35.54],[148.74,-35.58],[148.74,-35.62],[148.74,-35.66],[148.74,-35.7],[148.74,-35.74],[148.78,-35.74],[148.78,-35.78],[148.82,-35.78],[148.82,-35.82],[148.86,-35.82],[148.86,-35.86],[148.86,-35.9],[148.9,-35.9],[148.94,-35.9],[148.94,-35.94],[148.98,-35.94],[149.02,-35.94],[149.02,-35.98]],[[141.02,-34.06],[141.02,-34.02],[141.02,-33.98],[141.02,-33.94],[141.02,-33.9],[141.02,-33.86],[141.02,-33.82],[141.02,-33.78],[141.02,-33.74],[141.02,-33.7],[141.02,-33.66],[141.02,-33.62],[141.02,-33.58],[141.02,-33.54],[141.02,-33.5],[141.02,-33.46],[141.02,-33.42],[141.02,-33.38],[141.02,-33.34],[141.02,-33.3],[141.02,-33.26],[141.02,-33.22],[141.02,-33.18],[141.02,-33.14],[141.02,-33.1],[141.02,-33.06],[141.02,-33.02],[141.02,-32.98],[141.02,-32.94],[141.02,-32.9],[141.02,-32.86],[141.02,-32.82],[141.02,-32.78],[141.02,-32.74],[141.02,-32.7],[141.02,-32.66],[141.02,-32.62],[141.02,-32.58],[141.02,-32.54],[141.02,-32.5],[141.02,-32.46],[141.02,-32.42],[141.02,-32.38],[141.02,-32.34],[141.02,-32.3],[141.02,-32.26],[141.02,-32.22],[141.02,-32.18],[141.02,-32.14],[141.02,-32.1],[141.02,-32.06],[141.02,-32.02],[141.02,-31.98],[141.02,-31.94],[141.02,-31.9],[141.02,-31.86],[141.02,-31.82],[141.02,-31.78],[141.02,-31.74],[141.02,-31.7],[141.02,-31.66],[141.02,-31.62],[141.02,-31.58],[141.02,-31.54],[141.02,-31.5],[141.02,-31.46],[141.02,-31.42],[141.02,-31.38],[141.02,-31.34],[141.02,-31.3],[141.02,-31.26],[141.02,-31.22],[141.02,-31.18],[141.02,-31.14],[141.02,-31.1],[141.02,-31.06],[141.02,-31.02],[141.02,-30.98],[141.02,-30.94],[141.02,-30.9],[141.02,-30.86],[141.02,-30.82],[141.02,-30.78],[141.02,-30.74],[141.02,-30.7],[141.02,-30.66],[141.02,-30.62],[141.02,-30.58],[141.02,-30.54],[141.02,-30.5],[141.02,-30.46],[141.02,-30.42],[141.02,-30.38],[141.02,-30.34],[141.02,-30.3],[141.02,-30.26],[141.02,-30.22],[141.02,-30.18],[141.02,-30.14],[141.02,-30.1],[141.02,-30.06],[141.02,-30.02],[140.98,-30.02],[140.98,-29.98],[140.98,-29.94],[140.98,-29.9],[140.98,-29.86],[140.98,-29.82],[140.98,-29.78],[140.98,-29.74],[140.98,-29.7],[140.98,-29.66],[140.98,-29.62],[140.98,-29.58],[140.98,-29.54],[140.98,-29.5],[140.98,-29.46],[140.98,-29.42],[140.98,-29.38],[140.98,-29.34],[140.98,-29.3],[140.98,-29.26],[140.98,-29.22],[140.98,-29.18],[140.98,-29.14],[140.98,-29.1],[140.98,-29.06],[140.98,-29.02]],[[129.02,-31.7],[129.02,-31.66],[129.02,-31.62],[129.02,-31.58],[129.02,-31.54],[129.02,-31.5],[129.02,-31.46],[129.02,-31.42],[129.02,-31.38],[129.02,-31.34],[129.02,-31.3],[129.02,-31.26],[129.02,-31.22],[129.02,-31.18],[129.02,-31.14],[129.02,-31.1],[129.02,-31.06],[129.02,-31.02],[129.02,-30.98],[129.02,-30.94],[129.02,-30.9],[129.02,-30.86],[129.02,-30.82],[129.02,-30.78],[129.02,-30.74],[129.02,-30.7],[129.02,-30.66],[129.02,-30.62],[129.02,-30.58],[129.02,-30.54],[129.02,-30.5],[129.02,-30.46],[129.02,-30.42],[129.02,-30.38],[129.02,-30.34],[129.02,-30.3],[129.02,-30.26],[129.02,-30.22],[129.02,-30.18],[129.02,-30.14],[129.02,-30.1],[129.02,-30.06],[129.02,-30.02],[129.02,-29.98],[129.02,-29.94],[129.02,-29.9],[129.02,-29.86],[129.02,-29.82],[129.02,-29.78],[129.02,-29.74],[129.02,-29.7],[129.02,-29.66],[129.02,-29.62],[129.02,-29.58],[129.02,-29.54],[129.02,-29.5],[129.02,-29.46],[129.02,-29.42],[129.02,-29.38],[129.02,-29.34],[129.02,-29.3],[129.02,-29.26],[129.02,-29.22],[129.02,-29.18],[129.02,-29.14],[129.02,-29.1],[129.02,-29.06],[129.02,-29.02],[129.02,-28.98],[129.02,-28.94],[129.02,-28.9],[129.02,-28.86],[129.02,-28.82],[129.02,-28.78],[129.02,-28.74],[129.02,-28.7],[129.02,-28.66],[129.02,-28.62],[129.02,-28.58],[129.02,-28.54],[129.02,-28.5],[129.02,-28.46],[129.02,-28.42],[129.02,-28.38],[129.02,-28.34],[129.02,-28.3],[129.02,-28.26],[129.02,-28.22],[129.02,-28.18],[129.02,-28.14],[129.02,-28.1],[129.02,-28.06],[129.02,-28.02],[129.02,-27.98],[129.02,-27.94],[129.02,-27.9],[129.02,-27.86],[129.02,-27.82],[129.02,-27.78],[129.02,-27.74],[129.02,-27.7],[129.02,-27.66],[129.02,-27.62],[129.02,-27.58],[129.02,-27.54],[129.02,-27.5],[129.02,-27.46],[129.02,-27.42],[129.02,-27.38],[129.02,-27.34],[129.02,-27.3],[129.02,-27.26],[129.02,-27.22],[129.02,-27.18],[129.02,-27.14],[129.02,-27.1],[129.02,-27.06],[129.02,-27.02],[129.02,-26.98],[129.02,-26.94],[129.02,-26.9],[129.02,-26.86],[129.02,-26.82],[129.02,-26.78],[129.02,-26.74],[129.02,-26.7],[129.02,-26.66],[129.02,-26.62],[129.02,-26.58],[129.02,-26.54],[129.02,-26.5],[129.02,-26.46],[129.02,-26.42],[129.02,-26.38],[129.02,-26.34],[129.02,-26.3],[129.02,-26.26],[129.02,-26.22],[129.02,-26.18],[129.02,-26.14],[129.02,-26.1],[129.02,-26.06],[129.02,-26.02]],[[140.98,-29.02],[141.02,-29.02],[141.06,-29.02],[141.1,-29.02],[141.14,-29.02],[141.18,-29.02],[141.22,-29.02],[141.26,-29.02],[141.3,-29.02],[141.34,-29.02],[141.38,-29.02],[141.42,-29.02],[141.46,-29.02],[141.5,-29.02],[141.54,-29.02],[141.58,-29.02],[141.62,-29.02],[141.66,-29.02],[141.7,-29.02],[141.74,-29.02],[141.78,-29.02],[141.82,-29.02],[141.86,-29.02],[141.9,-29.02],[141.94,-29.02],[141.98,-29.02],[142.02,-29.02],[142.06,-29.02],[142.1,-29.02],[142.14,-29.02],[142.18,-29.02],[142.22,-29.02],[142.26,-29.02],[142.3,-29.02],[142.34,-29.02],[142.38,-29.02],[142.42,-29.02],[142.46,-29.02],[142.5,-29.02],[142.54,-29.02],[142.58,-29.02],[142.62,-29.02],[142.66,-29.02],[142.7,-29.02],[142.74,-29.02],[142.78,-29.02],[142.82,-29.02],[142.86,-29.02],[142.9,-29.02],[142.94,-29.02],[142.98,-29.02],[143.02,-29.02],[143.06,-29.02],[143.1,-29.02],[143.14,-29.02],[143.18,-29.02],[143.22,-29.02],[143.26,-29.02],[143.3,-29.02],[143.34,-29.02],[143.38,-29.02],[143.42,-29.02],[143.46,-29.02],[143.5,-29.02],[143.54,-29.02],[143.58,-29.02],[143.62,-29.02],[143.66,-29.02],[143.7,-29.02],[143.74,-29.02],[143.78,-29.02],[143.82,-29.02],[143.86,-29.02],[143.9,-29.02],[143.94,-29.02],[143.98,-29.02],[144.02,-29.02],[144.06,-29.02],[144.1,-29.02],[144.14,-29.02],[144.18,-29.02],[144.22,-29.02],[144.26,-29.02],[144.3,-29.02],[144.34,-29.02],[144.38,-29.02],[144.42,-29.02],[144.46,-29.02],[144.5,-29.02],[144.54,-29.02],[144.58,-29.02],[144.62,-29.02],[144.66,-29.02],[144.7,-29.02],[144.74,-29.02],[144.78,-29.02],[144.82,-29.02],[144.86,-29.02],[144.9,-29.02],[144.94,-29.02],[144.98,-29.02],[145.02,-29.02],[145.06,-29.02],[145.1,-29.02],[145.14,-29.02],[145.18,-29.02],[145.22,-29.02],[145.26,-29.02],[145.3,-29.02],[145.34,-29.02],[145.38,-29.02],[145.42,-29.02],[145.46,-29.02],[145.5,-29.02],[145.54,-29.02],[145.58,-29.02],[145.62,-29.02],[145.66,-29.02],[145.7,-29.02],[145.74,-29.02],[145.78,-29.02],[145.82,-29.02],[145.86,-29.02],[145.9,-29.02],[145.94,-29.02],[145.98,-29.02],[146.02,-29.02],[146.06,-29.02],[146.1,-29.02],[146.14,-29.02],[146.18,-29.02],[146.22,-29.02],[146.26,-29.02],[146.3,-29.02],[146.34,-29.02],[146.38,-29.02],[146.42,-29.02],[146.46,-29.02],[146.5,-29.02],[146.54,-29.02],[146.58,-29.02],[146.62,-29.02],[146.66,-29.02],[146.7,-29.02],[146.74,-29.02],[146.78,-29.02],[146.82,-29.02],[146.86,-29.02],[146.9,-29.02],[146.94,-29.02],[146.98,-29.02],[147.02,-29.02],[147.06,-29.02],[147.1,-29.02],[147.14,-29.02],[147.18,-29.02],[147.22,-29.02],[147.26,-29.02],[147.3,-29.02],[147.34,-29.02],[147.38,-29.02],[147.42,-29.02],[147.46,-29.02],[147.5,-29.02],[147.54,-29.02],[147.58,-29.02],[147.62,-29.02],[147.66,-29.02],[147.7,-29.02],[147.74,-29.02],[147.78,-29.02],[147.82,-29.02],[147.86,-29.02],[147.9,-29.02],[147.94,-29.02],[147.98,-29.02],[148.02,-29.02],[148.06,-29.02],[148.1,-29.02],[148.14,-29.02],[148.18,-29.02],[148.22,-29.02],[148.26,-29.02],[148.3,-29.02],[148.34,-29.02],[148.38,-29.02],[148.42,-29.02],[148.46,-29.02],[148.5,-29.02],[148.54,-29.02],[148.58,-29.02],[148.62,-29.02],[148.66,-29.02],[148.7,-29.02],[148.74,-29.02],[148.78,-29.02],[148.82,-29.02],[148.86,-29.02],[148.9,-29.02],[148.94,-29.02],[148.94,-28.98],[148.98,-28.98],[149.02,-28.98],[149.02,-28.94],[149.06,-28.94],[149.06,-28.9],[149.1,-28.9],[149.1,-28.86],[149.14,-28.86],[149.14,-28.82],[149.18,-28.82],[149.18,-28.78],[149.22,-28.78],[149.26,-28.78],[149.26,-28.74],[149.3,-28.74],[149.34,-28.74],[149.38,-28.74],[149.38,-28.7],[149.42,-28.7],[149.42,-28.66],[149.42,-28.62],[149.46,-28.62],[149.5,-28.62],[149.54,-28.62],[149.58,-28.62],[149.62,-28.62],[149.62,-28.66],[149.66,-28.66],[149.7,-28.66],[149.74,-28.66],[149.78,-28.66],[149.82,-28.66],[149.86,-28.66],[149.9,-28.66],[149.94,-28.66],[149.98,-28.66],[149.98,-28.62],[150.02,-28.62],[150.02,-28.58],[150.06,-28.58],[150.1,-28.58],[150.14,-28.58],[150.18,-28.58],[150.18,-28.62],[150.22,-28.62],[150.22,-28.58],[150.26,-28.58],[150.3,-28.58],[150.3,-28.62],[150.34,-28.62],[150.34,-28.66],[150.38,-28.66],[150.42,-28.66],[150.42,-28.7],[150.46,-28.7],[150.5,-28.7],[150.54,-28.7],[150.58,-28.7],[150.62,-28.7],[150.62,-28.66],[150.66,-28.66],[150.7,-28.66],[150.74,-28.66],[150.78,-28.66],[150.78,-28.7],[150.82,-28.7],[150.86,-28.7],[150.86,-28.74],[150.9,-28.74],[150.9,-28.78],[150.94,-28.78],[150.98,-28.78],[150.98,-28.82],[151.02,-28.82],[151.02,-28.86],[151.02,-28.9],[151.06,-28.9],[151.06,-28.86],[151.1,-28.86],[151.1,-28.9],[151.14,-28.9],[151.18,-28.9],[151.18,-28.94],[151.22,-28.94],[151.22,-28.98],[151.22,-29.02],[151.26,-29.02],[151.26,-29.06],[151.26,-29.1],[151.26,-29.14],[151.26,-29.18],[151.26,-29.22],[151.3,-29.22],[151.34,-29.22],[151.38,-29.22],[151.38,-29.18],[151.42,-29.18],[151.42,-29.14],[151.46,-29.14],[151.46,-29.1],[151.5,-29.1],[151.5,-29.06],[151.5,-29.02]],[[151.54,-28.98],[151.58,-28.98],[151.62,-28.98],[151.62,-28.94],[151.66,-28.94],[151.66,-28.9],[151.7,-28.9],[151.74,-28.9],[151.74,-28.94],[151.74,-28.98],[151.78,-28.98],[151.78,-29.02],[151.82,-29.02],[151.82,-28.98],[151.82,-28.94],[151.86,-28.94],[151.9,-28.94],[151.9,-28.98],[151.94,-28.98],[151.94,-28.94],[151.98,-28.94],[152.02,-28.94],[152.02,-28.9],[152.02,-28.86],[152.02,-28.82],[152.06,-28.82],[152.06,-28.78],[152.06,-28.74],[152.06,-28.7],[152.02,-28.7],[152.02,-28.66],[151.98,-28.66]],[[151.98,-28.62],[151.98,-28.58],[151.94,-28.58],[151.94,-28.54],[151.98,-28.54],[151.98,-28.58],[152.02,-28.58],[152.02,-28.54],[152.06,-28.54],[152.06,-28.5],[152.1,-28.5],[152.1,-28.46],[152.14,-28.46],[152.18,-28.46],[152.18,-28.5],[152.22,-28.5],[152.22,-28.46],[152.26,-28.46],[152.26,-28.42],[152.3,-28.42],[152.34,-28.42],[152.38,-28.42],[152.38,-28.38],[152.38,-28.34],[152.42,-28.34],[152.42,-28.3],[152.46,-28.3],[152.5,-28.3],[152.5,-28.34],[152.54,-28.34],[152.54,-28.38],[152.58,-28.38],[152.58,-28.34],[152.58,-28.3],[152.62,-28.3],[152.62,-28.34],[152.62,-28.38],[152.66,-28.38],[152.7,-28.38],[152.7,-28.42],[152.74,-28.42],[152.74,-28.38],[152.78,-28.38],[152.78,-28.34],[152.82,-28.34],[152.86,-28.34],[152.9,-28.34],[152.94,-28.34],[152.98,-28.34],[152.98,-28.38],[153.02,-28.38],[153.06,-28.38],[153.1,-28.38],[153.1,-28.34],[153.14,-28.34],[153.14,-28.3],[153.18,-28.3],[153.22,-28.3],[153.22,-28.26],[153.26,-28.26],[153.3,-28.26],[153.34,-28.26],[153.34,-28.3]],[[153.38,-28.3],[153.38,-28.26],[153.42,-28.26],[153.42,-28.22],[153.46,-28.22],[153.46,-28.18],[153.5,-28.18],[153.5,-28.22],[153.54,-28.22],[153.54,-28.18]],[[140.98,-29.02],[140.98,-28.98],[140.98,-28.94],[140.98,-28.9],[140.98,-28.86],[140.98,-28.82],[140.98,-28.78],[140.98,-28.74],[140.98,-28.7],[140.98,-28.66],[140.98,-28.62],[140.98,-28.58],[140.98,-28.54],[140.98,-28.5],[140.98,-28.46],[140.98,-28.42],[140.98,-28.38],[140.98,-28.34],[140.98,-28.3],[140.98,-28.26],[140.98,-28.22],[140.98,-28.18],[140.98,-28.14],[140.98,-28.1],[140.98,-28.06],[140.98,-28.02],[140.98,-27.98],[140.98,-27.94],[140.98,-27.9],[140.98,-27.86],[140.98,-27.82],[140.98,-27.78],[140.98,-27.74],[140.98,-27.7],[140.98,-27.66],[140.98,-27.62],[140.98,-27.58],[140.98,-27.54],[140.98,-27.5],[140.98,-27.46],[140.98,-27.42],[140.98,-27.38],[140.98,-27.34],[140.98,-27.3],[140.98,-27.26],[140.98,-27.22],[140.98,-27.18],[140.98,-27.14],[140.98,-27.1],[140.98,-27.06],[140.98,-27.02],[140.98,-26.98],[140.98,-26.94],[140.98,-26.9],[140.98,-26.86],[140.98,-26.82],[140.98,-26.78],[140.98,-26.74],[140.98,-26.7],[140.98,-26.66],[140.98,-26.62],[140.98,-26.58],[140.98,-26.54],[140.98,-26.5],[140.98,-26.46],[140.98,-26.42],[140.98,-26.38],[140.98,-26.34],[140.98,-26.3],[140.98,-26.26],[140.98,-26.22],[140.98,-26.18],[140.98,-26.14],[140.98,-26.1],[140.98,-26.06],[140.98,-26.02],[140.98,-25.98],[140.94,-25.98],[140.9,-25.98],[140.86,-25.98],[140.82,-25.98],[140.78,-25.98],[140.74,-25.98],[140.7,-25.98],[140.66,-25.98],[140.62,-25.98],[140.58,-25.98],[140.54,-25.98],[140.5,-25.98],[140.46,-25.98],[140.42,-25.98],[140.38,-25.98],[140.34,-25.98],[140.3,-25.98],[140.26,-25.98],[140.22,-25.98],[140.18,-25.98],[140.14,-25.98],[140.1,-25.98],[140.06,-25.98],[140.02,-25.98],[139.98,-25.98],[139.94,-25.98],[139.9,-25.98],[139.86,-25.98],[139.82,-25.98],[139.78,-25.98],[139.74,-25.98],[139.7,-25.98],[139.66,-25.98],[139.62,-25.98],[139.58,-25.98],[139.54,-25.98],[139.5,-25.98],[139.46,-25.98],[139.42,-25.98],[139.38,-25.98],[139.34,-25.98],[139.3,-25.98],[139.26,-25.98],[139.22,-25.98],[139.18,-25.98],[139.14,-25.98],[139.1,-25.98],[139.06,-25.98],[139.02,-25.98],[138.98,-25.98],[138.94,-25.98],[138.9,-25.98],[138.86,-25.98],[138.82,-25.98],[138.78,-25.98],[138.74,-25.98],[138.7,-25.98],[138.66,-25.98],[138.62,-25.98],[138.58,-25.98],[138.54,-25.98],[138.5,-25.98],[138.46,-25.98],[138.42,-25.98],[138.38,-25.98],[138.34,-25.98],[138.3,-25.98],[138.26,-25.98],[138.22,-25.98],[138.18,-25.98],[138.14,-25.98],[138.1,-25.98],[138.06,-25.98],[138.02,-25.98],[137.98,-25.98]],[[129.02,-26.02],[128.98,-26.02],[128.98,-25.98],[128.98,-25.94],[128.98,-25.9],[128.98,-25.86],[128.98,-25.82],[128.98,-25.78],[128.98,-25.74],[128.98,-25.7],[128.98,-25.66],[128.98,-25.62],[128.98,-25.58],[128.98,-25.54],[128.98,-25.5],[128.98,-25.46],[128.98,-25.42],[128.98,-25.38],[128.98,-25.34],[128.98,-25.3],[128.98,-25.26],[128.98,-25.22],[128.98,-25.18],[128.98,-25.14],[128.98,-25.1],[128.98,-25.06],[128.98,-25.02],[128.98,-24.98],[128.98,-24.94],[128.98,-24.9],[128.98,-24.86],[128.98,-24.82],[128.98,-24.78],[128.98,-24.74],[128.98,-24.7],[128.98,-24.66],[128.98,-24.62],[128.98,-24.58],[128.98,-24.54],[128.98,-24.5],[128.98,-24.46],[128.98,-24.42],[128.98,-24.38],[128.98,-24.34],[128.98,-24.3],[128.98,-24.26],[128.98,-24.22],[128.98,-24.18],[128.98,-24.14],[128.98,-24.1],[128.98,-24.06],[128.98,-24.02],[128.98,-23.98],[128.98,-23.94],[128.98,-23.9],[128.98,-23.86],[128.98,-23.82],[128.98,-23.78],[128.98,-23.74],[128.98,-23.7],[128.98,-23.66],[128.98,-23.62],[128.98,-23.58],[128.98,-23.54],[128.98,-23.5],[128.98,-23.46],[128.98,-23.42],[128.98,-23.38],[128.98,-23.34],[128.98,-23.3],[128.98,-23.26],[128.98,-23.22],[128.98,-23.18],[128.98,-23.14],[128.98,-23.1],[128.98,-23.06],[128.98,-23.02],[128.98,-22.98],[128.98,-22.94],[128.98,-22.9],[128.98,-22.86],[128.98,-22.82],[128.98,-22.78],[128.98,-22.74],[128.98,-22.7],[128.98,-22.66],[128.98,-22.62],[128.98,-22.58],[128.98,-22.54],[128.98,-22.5],[128.98,-22.46],[128.98,-22.42],[128.98,-22.38],[128.98,-22.34],[128.98,-22.3],[128.98,-22.26],[128.98,-22.22],[128.98,-22.18],[128.98,-22.14],[128.98,-22.1],[128.98,-22.06],[128.98,-22.02],[128.98,-21.98],[128.98,-21.94],[128.98,-21.9],[128.98,-21.86],[128.98,-21.82],[128.98,-21.78],[128.98,-21.74],[128.98,-21.7],[128.98,-21.66],[128.98,-21.62],[128.98,-21.58],[128.98,-21.54],[128.98,-21.5],[128.98,-21.46],[128.98,-21.42],[128.98,-21.38],[128.98,-21.34],[128.98,-21.3],[128.98,-21.26],[128.98,-21.22],[128.98,-21.18],[128.98,-21.14],[128.98,-21.1],[128.98,-21.06],[128.98,-21.02],[128.98,-20.98],[128.98,-20.94],[128.98,-20.9],[128.98,-20.86],[128.98,-20.82],[128.98,-20.78],[128.98,-20.74],[128.98,-20.7],[128.98,-20.66],[128.98,-20.62],[128.98,-20.58],[128.98,-20.54],[128.98,-20.5],[128.98,-20.46],[128.98,-20.42],[128.98,-20.38],[128.98,-20.34],[128.98,-20.3],[128.98,-20.26],[128.98,-20.22],[128.98,-20.18],[128.98,-20.14],[128.98,-20.1],[128.98,-20.06],[128.98,-20.02],[128.98,-19.98],[128.98,-19.94],[128.98,-19.9],[128.98,-19.86],[128.98,-19.82],[128.98,-19.78],[128.98,-19.74],[128.98,-19.7],[128.98,-19.66],[128.98,-19.62],[128.98,-19.58],[128.98,-19.54],[128.98,-19.5],[128.98,-19.46],[128.98,-19.42],[128.98,-19.38],[128.98,-19.34],[128.98,-19.3],[128.98,-19.26],[128.98,-19.22],[128.98,-19.18],[128.98,-19.14],[128.98,-19.1],[128.98,-19.06],[128.98,-19.02],[128.98,-18.98],[128.98,-18.94],[128.98,-18.9],[128.98,-18.86],[128.98,-18.82],[128.98,-18.78],[128.98,-18.74],[128.98,-18.7],[128.98,-18.66],[128.98,-18.62],[128.98,-18.58],[128.98,-18.54],[128.98,-18.5],[128.98,-18.46],[128.98,-18.42],[128.98,-18.38],[128.98,-18.34],[128.98,-18.3],[128.98,-18.26],[128.98,-18.22],[128.98,-18.18],[128.98,-18.14],[128.98,-18.1],[128.98,-18.06],[128.98,-18.02],[128.98,-17.98],[128.98,-17.94],[128.98,-17.9],[128.98,-17.86],[128.98,-17.82],[128.98,-17.78],[128.98,-17.74],[128.98,-17.7],[128.98,-17.66],[128.98,-17.62],[128.98,-17.58],[128.98,-17.54],[128.98,-17.5],[128.98,-17.46],[128.98,-17.42],[128.98,-17.38],[128.98,-17.34],[128.98,-17.3],[128.98,-17.26],[128.98,-17.22],[128.98,-17.18],[128.98,-17.14],[128.98,-17.1],[128.98,-17.06],[128.98,-17.02],[128.98,-16.98],[128.98,-16.94],[128.98,-16.9],[128.98,-16.86],[128.98,-16.82],[128.98,-16.78],[128.98,-16.74],[128.98,-16.7],[128.98,-16.66],[128.98,-16.62],[128.98,-16.58],[128.98,-16.54],[128.98,-16.5],[128.98,-16.46],[128.98,-16.42],[128.98,-16.38],[128.98,-16.34],[128.98,-16.3],[128.98,-16.26],[128.98,-16.22],[128.98,-16.18],[128.98,-16.14],[128.98,-16.1],[128.98,-16.06],[128.98,-16.02],[128.98,-15.98],[128.98,-15.94],[128.98,-15.9],[128.98,-15.86],[128.98,-15.82],[128.98,-15.78],[128.98,-15.74],[128.98,-15.7],[128.98,-15.66],[128.98,-15.62],[128.98,-15.58],[128.98,-15.54],[128.98,-15.5],[128.98,-15.46],[128.98,-15.42],[128.98,-15.38],[128.98,-15.34],[128.98,-15.3],[128.98,-15.26],[128.98,-15.22],[128.98,-15.18],[128.98,-15.14],[128.98,-15.1],[128.98,-15.06],[128.98,-15.02],[128.98,-14.98],[128.98,-14.94],[128.98,-14.9],[128.98,-14.86]],[[129.02,-26.02],[129.06,-26.02],[129.1,-26.02],[129.14,-26.02],[129.18,-26.02],[129.22,-26.02],[129.26,-26.02],[129.3,-26.02],[129.34,-26.02],[129.38,-26.02],[129.42,-26.02],[129.46,-26.02],[129.5,-26.02],[129.54,-26.02],[129.58,-26.02],[129.62,-26.02],[129.66,-26.02],[129.7,-26.02],[129.74,-26.02],[129.78,-26.02],[129.82,-26.02],[129.86,-26.02],[129.9,-26.02],[129.94,-26.02],[129.98,-26.02],[130.02,-26.02],[130.06,-26.02],[130.1,-26.02],[130.14,-26.02],[130.18,-26.02],[130.22,-26.02],[130.26,-26.02],[130.3,-26.02],[130.34,-26.02],[130.38,-26.02],[130.42,-26.02],[130.46,-26.02],[130.5,-26.02],[130.54,-26.02],[130.58,-26.02],[130.62,-26.02],[130.66,-26.02],[130.7,-26.02],[130.74,-26.02],[130.78,-26.02],[130.82,-26.02],[130.86,-26.02],[130.9,-26.02],[130.94,-26.02],[130.98,-26.02],[131.02,-26.02],[131.06,-26.02],[131.1,-26.02],[131.14,-26.02],[131.18,-26.02],[131.22,-26.02],[131.26,-26.02],[131.3,-26.02],[131.34,-26.02],[131.38,-26.02],[131.42,-26.02],[131.46,-26.02],[131.5,-26.02],[131.54,-26.02],[131.58,-26.02],[131.62,-26.02],[131.66,-26.02],[131.7,-26.02],[131.74,-26.02],[131.78,-26.02],[131.82,-26.02],[131.86,-26.02],[131.9,-26.02],[131.94,-26.02],[131.98,-26.02],[132.02,-26.02],[132.06,-26.02],[132.1,-26.02],[132.14,-26.02],[132.18,-26.02],[132.22,-26.02],[132.26,-26.02],[132.3,-26.02],[132.34,-26.02],[132.38,-26.02],[132.42,-26.02],[132.46,-26.02],[132.5,-26.02],[132.54,-26.02],[132.58,-26.02],[132.62,-26.02],[132.66,-26.02],[132.7,-26.02],[132.74,-26.02],[132.78,-26.02],[132.82,-26.02],[132.86,-26.02],[132.9,-26.02],[132.94,-26.02],[132.98,-26.02],[133.02,-26.02],[133.06,-26.02],[133.1,-26.02],[133.14,-26.02],[133.18,-26.02],[133.22,-26.02],[133.26,-26.02],[133.3,-26.02],[133.34,-26.02],[133.38,-26.02],[133.42,-26.02],[133.46,-26.02],[133.5,-26.02],[133.54,-26.02],[133.58,-26.02],[133.62,-26.02],[133.66,-26.02],[133.7,-26.02],[133.74,-26.02],[133.78,-26.02],[133.82,-26.02],[133.86,-26.02],[133.9,-26.02],[133.94,-26.02],[133.98,-26.02],[134.02,-26.02],[134.06,-26.02],[134.1,-26.02],[134.14,-26.02],[134.18,-26.02],[134.22,-26.02],[134.26,-26.02],[134.3,-26.02],[134.34,-26.02],[134.38,-26.02],[134.42,-26.02],[134.46,-26.02],[134.5,-26.02],[134.54,-26.02],[134.58,-26.02],[134.62,-26.02],[134.66,-26.02],[134.7,-26.02],[134.74,-26.02],[134.78,-26.02],[134.82,-26.02],[134.86,-26.02],[134.9,-26.02],[134.94,-26.02],[134.98,-26.02],[135.02,-26.02],[135.06,-26.02],[135.1,-26.02],[135.14,-26.02],[135.18,-26.02],[135.22,-26.02],[135.26,-26.02],[135.3,-26.02],[135.34,-26.02],[135.38,-26.02],[135.42,-26.02],[135.46,-26.02],[135.5,-26.02],[135.54,-26.02],[135.58,-26.02],[135.62,-26.02],[135.66,-26.02],[135.7,-26.02],[135.74,-26.02],[135.78,-26.02],[135.82,-26.02],[135.86,-26.02],[135.9,-26.02],[135.94,-26.02],[135.98,-26.02],[136.02,-26.02],[136.06,-26.02],[136.1,-26.02],[136.14,-26.02],[136.18,-26.02],[136.22,-26.02],[136.26,-26.02],[136.3,-26.02],[136.34,-26.02],[136.38,-26.02],[136.42,-26.02],[136.46,-26.02],[136.5,-26.02],[136.54,-26.02],[136.58,-26.02],[136.62,-26.02],[136.66,-26.02],[136.7,-26.02],[136.74,-26.02],[136.78,-26.02],[136.82,-26.02],[136.86,-26.02],[136.9,-26.02],[136.94,-26.02],[136.98,-26.02],[137.02,-26.02],[137.06,-26.02],[137.1,-26.02],[137.14,-26.02],[137.18,-26.02],[137.22,-26.02],[137.26,-26.02],[137.3,-26.02],[137.34,-26.02],[137.38,-26.02],[137.42,-26.02],[137.46,-26.02],[137.5,-26.02],[137.54,-26.02],[137.58,-26.02],[137.62,-26.02],[137.66,-26.02],[137.7,-26.02],[137.74,-26.02],[137.78,-26.02],[137.82,-26.02],[137.86,-26.02],[137.9,-26.02],[137.94,-26.02],[137.98,-26.02],[137.98,-25.98]],[[137.98,-25.98],[137.98,-25.94],[137.98,-25.9],[137.98,-25.86],[137.98,-25.82],[137.98,-25.78],[137.98,-25.74],[137.98,-25.7],[137.98,-25.66],[137.98,-25.62],[137.98,-25.58],[137.98,-25.54],[137.98,-25.5],[137.98,-25.46],[137.98,-25.42],[137.98,-25.38],[137.98,-25.34],[137.98,-25.3],[137.98,-25.26],[137.98,-25.22],[137.98,-25.18],[137.98,-25.14],[137.98,-25.1],[137.98,-25.06],[137.98,-25.02],[137.98,-24.98],[137.98,-24.94],[137.98,-24.9],[137.98,-24.86],[137.98,-24.82],[137.98,-24.78],[137.98,-24.74],[137.98,-24.7],[137.98,-24.66],[137.98,-24.62],[137.98,-24.58],[137.98,-24.54],[137.98,-24.5],[137.98,-24.46],[137.98,-24.42],[137.98,-24.38],[137.98,-24.34],[137.98,-24.3],[137.98,-24.26],[137.98,-24.22],[137.98,-24.18],[137.98,-24.14],[137.98,-24.1],[137.98,-24.06],[137.98,-24.02],[137.98,-23.98],[137.98,-23.94],[137.98,-23.9],[137.98,-23.86],[137.98,-23.82],[137.98,-23.78],[137.98,-23.74],[137.98,-23.7],[137.98,-23.66],[137.98,-23.62],[137.98,-23.58],[137.98,-23.54],[137.98,-23.5],[137.98,-23.46],[137.98,-23.42],[137.98,-23.38],[137.98,-23.34],[137.98,-23.3],[137.98,-23.26],[137.98,-23.22],[137.98,-23.18],[137.98,-23.14],[137.98,-23.1],[137.98,-23.06],[137.98,-23.02],[137.98,-22.98],[137.98,-22.94],[137.98,-22.9],[137.98,-22.86],[137.98,-22.82],[137.98,-22.78],[137.98,-22.74],[137.98,-22.7],[137.98,-22.66],[137.98,-22.62],[137.98,-22.58],[137.98,-22.54],[137.98,-22.5],[137.98,-22.46],[137.98,-22.42],[137.98,-22.38],[137.98,-22.34],[137.98,-22.3],[137.98,-22.26],[137.98,-22.22],[137.98,-22.18],[137.98,-22.14],[137.98,-22.1],[137.98,-22.06],[137.98,-22.02],[137.98,-21.98],[137.98,-21.94],[137.98,-21.9],[137.98,-21.86],[137.98,-21.82],[137.98,-21.78],[137.98,-21.74],[137.98,-21.7],[137.98,-21.66],[137.98,-21.62],[137.98,-21.58],[137.98,-21.54],[137.98,-21.5],[137.98,-21.46],[137.98,-21.42],[137.98,-21.38],[137.98,-21.34],[137.98,-21.3],[137.98,-21.26],[137.98,-21.22],[137.98,-21.18],[137.98,-21.14],[137.98,-21.1],[137.98,-21.06],[137.98,-21.02],[137.98,-20.98],[137.98,-20.94],[137.98,-20.9],[137.98,-20.86],[137.98,-20.82],[137.98,-20.78],[137.98,-20.74],[137.98,-20.7],[137.98,-20.66],[137.98,-20.62],[137.98,-20.58],[137.98,-20.54],[137.98,-20.5],[137.98,-20.46],[137.98,-20.42],[137.98,-20.38],[137.98,-20.34],[137.98,-20.3],[137.98,-20.26],[137.98,-20.22],[137.98,-20.18],[137.98,-20.14],[137.98,-20.1],[137.98,-20.06],[137.98,-20.02],[137.98,-19.98],[137.98,-19.94],[137.98,-19.9],[137.98,-19.86],[137.98,-19.82],[137.98,-19.78],[137.98,-19.74],[137.98,-19.7],[137.98,-19.66],[137.98,-19.62],[137.98,-19.58],[137.98,-19.54],[137.98,-19.5],[137.98,-19.46],[137.98,-19.42],[137.98,-19.38],[137.98,-19.34],[137.98,-19.3],[137.98,-19.26],[137.98,-19.22],[137.98,-19.18],[137.98,-19.14],[137.98,-19.1],[137.98,-19.06],[137.98,-19.02],[137.98,-18.98],[137.98,-18.94],[137.98,-18.9],[137.98,-18.86],[137.98,-18.82],[137.98,-18.78],[137.98,-18.74],[137.98,-18.7],[137.98,-18.66],[137.98,-18.62],[137.98,-18.58],[137.98,-18.54],[137.98,-18.5],[137.98,-18.46],[137.98,-18.42],[137.98,-18.38],[137.98,-18.34],[137.98,-18.3],[137.98,-18.26],[137.98,-18.22],[137.98,-18.18],[137.98,-18.14],[137.98,-18.1],[137.98,-18.06],[137.98,-18.02],[137.98,-17.98],[137.98,-17.94],[137.98,-17.9],[137.98,-17.86],[137.98,-17.82],[137.98,-17.78],[137.98,-17.74],[137.98,-17.7],[137.98,-17.66],[137.98,-17.62],[137.98,-17.58],[137.98,-17.54],[137.98,-17.5],[137.98,-17.46],[137.98,-17.42],[137.98,-17.38],[137.98,-17.34],[137.98,-17.3],[137.98,-17.26],[137.98,-17.22],[137.98,-17.18],[137.98,-17.14],[137.98,-17.1],[137.98,-17.06],[137.98,-17.02],[137.98,-16.98],[137.98,-16.94],[137.98,-16.9],[137.98,-16.86],[137.98,-16.82],[137.98,-16.78],[137.98,-16.74],[137.98,-16.7],[137.98,-16.66],[137.98,-16.62],[137.98,-16.58]]]}}]}